[{"OBJECT_NAME":"IRIDIUM 172","OBJECT_ID":"2019-002F","EPOCH":"2026-03-09T21:35:38.790528","MEAN_MOTION":14.34217807,"ECCENTRICITY":0.00023275,"INCLINATION":86.397,"RA_OF_ASC_NODE":35.0518,"ARG_OF_PERICENTER":84.9159,"MEAN_ANOMALY":275.2302,"EPHEMERIS_TYPE":0,"CLASSIFICATION_TYPE":"U","NORAD_CAT_ID":43927,"ELEMENT_SET_NO":999,"REV_AT_EPOCH":37473,"BSTAR":0.00014166362,"MEAN_MOTION_DOT":4.17e-6,"MEAN_MOTION_DDOT":0},{"OBJECT_NAME":"NOAA 16 DEB","OBJECT_ID":"2000-055CK","EPOCH":"2026-03-09T06:27:19.897920","MEAN_MOTION":14.36692689,"ECCENTRICITY":0.0012082,"INCLINATION":98.8266,"RA_OF_ASC_NODE":190.3319,"ARG_OF_PERICENTER":122.3219,"MEAN_ANOMALY":237.9138,"EPHEMERIS_TYPE":0,"CLASSIFICATION_TYPE":"U","NORAD_CAT_ID":41152,"ELEMENT_SET_NO":999,"REV_AT_EPOCH":53231,"BSTAR":0.0021862781,"MEAN_MOTION_DOT":6.405e-5,"MEAN_MOTION_DDOT":0}]
